[
    {
        "Altitude(m)": 702930.2683319291,
        "Argument of Periapsis(deg)": 0.005695060593313534,
        "Eccentricity": 0.0,
        "Inclination(deg)": 45.0,
        "Latitude(deg)": 18.74444522082045,
        "Longitude(deg)": 44.902500931427774,
        "Mean Anomaly(deg)": -206.96069167625956,
        "RAAN(deg)": 344.99462402927094,
        "Satellite Name": "Constellation 1 1527",
        "Satellite Number": 1527,
        "Semi-Major Axis(m)": 7083131.272910544,
        "Time(s)": 95
    },
    {
        "Altitude(m)": 702927.4318265031,
        "Argument of Periapsis(deg)": 0.00575500859955894,
        "Eccentricity": 0.0,
        "Inclination(deg)": 45.0,
        "Latitude(deg)": 18.70378432341969,
        "Longitude(deg)": 44.9461585831496,
        "Mean Anomaly(deg)": -206.8999905360097,
        "RAAN(deg)": 344.99456744010536,
        "Satellite Name": "Constellation 1 1527",
        "Satellite Number": 1527,
        "Semi-Major Axis(m)": 7083131.272910544,
        "Time(s)": 96
    },
    {
        "Altitude(m)": 702924.610216097,
        "Argument of Periapsis(deg)": 0.005814956605804345,
        "Eccentricity": 0.0,
        "Inclination(deg)": 45.0,
        "Latitude(deg)": 18.663111110905437,
        "Longitude(deg)": 44.989793581354675,
        "Mean Anomaly(deg)": -206.83928939575983,
        "RAAN(deg)": 344.99451085093983,
        "Satellite Name": "Constellation 1 1527",
        "Satellite Number": 1527,
        "Semi-Major Axis(m)": 7083131.272910544,
        "Time(s)": 97
    },
    {
        "Altitude(m)": 702921.8035304616,
        "Argument of Periapsis(deg)": 0.00587490461204975,
        "Eccentricity": 0.0,
        "Inclination(deg)": 45.0,
        "Latitude(deg)": 18.622425617723497,
        "Longitude(deg)": 45.03340581517504,
        "Mean Anomaly(deg)": -206.7785882555099,
        "RAAN(deg)": 344.9944542617742,
        "Satellite Name": "Constellation 1 1527",
        "Satellite Number": 1527,
        "Semi-Major Axis(m)": 7083131.272910544,
        "Time(s)": 98
    },
    {
        "Altitude(m)": 702919.0117992967,
        "Argument of Periapsis(deg)": 0.005934852618295156,
        "Eccentricity": 0.0,
        "Inclination(deg)": 45.0,
        "Latitude(deg)": 18.581727878275153,
        "Longitude(deg)": 45.07699534180963,
        "Mean Anomaly(deg)": -206.71788711526003,
        "RAAN(deg)": 344.9943976726086,
        "Satellite Name": "Constellation 1 1527",
        "Satellite Number": 1527,
        "Semi-Major Axis(m)": 7083131.272910544,
        "Time(s)": 99
    },
    {
        "Altitude(m)": 702916.2350522364,
        "Argument of Periapsis(deg)": 0.005994800624540561,
        "Eccentricity": 0.0,
        "Inclination(deg)": 45.0,
        "Latitude(deg)": 18.541017926916844,
        "Longitude(deg)": 45.12056221842758,
        "Mean Anomaly(deg)": -206.65718597501012,
        "RAAN(deg)": 344.9943410834431,
        "Satellite Name": "Constellation 1 1527",
        "Satellite Number": 1527,
        "Semi-Major Axis(m)": 7083131.272910544,
        "Time(s)": 100
    },
    {
        "Altitude(m)": 702913.4733188711,
        "Argument of Periapsis(deg)": 0.006054748630785968,
        "Eccentricity": 0.0,
        "Inclination(deg)": 45.0,
        "Latitude(deg)": 18.500295797960295,
        "Longitude(deg)": 45.164106502167705,
        "Mean Anomaly(deg)": -206.5964848347602,
        "RAAN(deg)": 344.9942844942775,
        "Satellite Name": "Constellation 1 1527",
        "Satellite Number": 1527,
        "Semi-Major Axis(m)": 7083131.272910544,
        "Time(s)": 101
    },
    {
        "Altitude(m)": 702910.726628708,
        "Argument of Periapsis(deg)": 0.006114696637031373,
        "Eccentricity": 0.0,
        "Inclination(deg)": 45.0,
        "Latitude(deg)": 18.459561525672974,
        "Longitude(deg)": 45.20762825013831,
        "Mean Anomaly(deg)": -206.53578369451034,
        "RAAN(deg)": 344.9942279051119,
        "Satellite Name": "Constellation 1 1527",
        "Satellite Number": 1527,
        "Semi-Major Axis(m)": 7083131.272910544,
        "Time(s)": 102
    },
    {
        "Altitude(m)": 702907.9950112236,
        "Argument of Periapsis(deg)": 0.006174644643276778,
        "Eccentricity": 0.0,
        "Inclination(deg)": 45.0,
        "Latitude(deg)": 18.418815144277612,
        "Longitude(deg)": 45.25112751941793,
        "Mean Anomaly(deg)": -206.4750825542604,
        "RAAN(deg)": 344.99417131594635,
        "Satellite Name": "Constellation 1 1527",
        "Satellite Number": 1527,
        "Semi-Major Axis(m)": 7083131.272910544,
        "Time(s)": 103
    },
    {
        "Altitude(m)": 702905.2784958184,
        "Argument of Periapsis(deg)": 0.006234592649522184,
        "Eccentricity": 0.0,
        "Inclination(deg)": 45.0,
        "Latitude(deg)": 18.378056687952697,
        "Longitude(deg)": 45.29460419895713,
        "Mean Anomaly(deg)": -206.41438141401048,
        "RAAN(deg)": 344.99411472678077,
        "Satellite Name": "Constellation 1 1527",
        "Satellite Number": 1527,
        "Semi-Major Axis(m)": 7083131.272910544,
        "Time(s)": 104
    },
    {
        "Altitude(m)": 702902.577111835,
        "Argument of Periapsis(deg)": 0.00629454065576759,
        "Eccentricity": 0.0,
        "Inclination(deg)": 45.0,
        "Latitude(deg)": 18.337286190833122,
        "Longitude(deg)": 45.33805868196802,
        "Mean Anomaly(deg)": -206.35368027376055,
        "RAAN(deg)": 344.99405813761524,
        "Satellite Name": "Constellation 1 1527",
        "Satellite Number": 1527,
        "Semi-Major Axis(m)": 7083131.272910544,
        "Time(s)": 105
    },
    {
        "Altitude(m)": 702899.890888556,
        "Argument of Periapsis(deg)": 0.006354488662012995,
        "Eccentricity": 0.0,
        "Inclination(deg)": 45.0,
        "Latitude(deg)": 18.296503687009093,
        "Longitude(deg)": 45.38149085734051,
        "Mean Anomaly(deg)": -206.2929791335107,
        "RAAN(deg)": 344.99400154844966,
        "Satellite Name": "Constellation 1 1527",
        "Satellite Number": 1527,
        "Semi-Major Axis(m)": 7083131.272910544,
        "Time(s)": 106
    },
    {
        "Altitude(m)": 702897.2198552144,
        "Argument of Periapsis(deg)": 0.006414436668258401,
        "Eccentricity": 0.0,
        "Inclination(deg)": 45.0,
        "Latitude(deg)": 18.255709210527044,
        "Longitude(deg)": 45.42490078203155,
        "Mean Anomaly(deg)": -206.23227799326085,
        "RAAN(deg)": 344.9939449592841,
        "Satellite Name": "Constellation 1 1527",
        "Satellite Number": 1527,
        "Semi-Major Axis(m)": 7083131.272910544,
        "Time(s)": 107
    },
    {
        "Altitude(m)": 702894.5640409688,
        "Argument of Periapsis(deg)": 0.0064743846745038075,
        "Eccentricity": 0.0,
        "Inclination(deg)": 45.0,
        "Latitude(deg)": 18.214902795389538,
        "Longitude(deg)": 45.468288512967476,
        "Mean Anomaly(deg)": -206.17157685301092,
        "RAAN(deg)": 344.9938883701185,
        "Satellite Name": "Constellation 1 1527",
        "Satellite Number": 1527,
        "Semi-Major Axis(m)": 7083131.272910544,
        "Time(s)": 108
    },
    {
        "Altitude(m)": 702891.923474934,
        "Argument of Periapsis(deg)": 0.0065343326807492125,
        "Eccentricity": 0.0,
        "Inclination(deg)": 45.0,
        "Latitude(deg)": 18.174084475555595,
        "Longitude(deg)": 45.511654107044194,
        "Mean Anomaly(deg)": -206.11087571276104,
        "RAAN(deg)": 344.993831780953,
        "Satellite Name": "Constellation 1 1527",
        "Satellite Number": 1527,
        "Semi-Major Axis(m)": 7083131.272910544,
        "Time(s)": 109
    },
    {
        "Altitude(m)": 702889.2981861542,
        "Argument of Periapsis(deg)": 0.0065942806869946176,
        "Eccentricity": 0.0,
        "Inclination(deg)": 45.0,
        "Latitude(deg)": 18.133254284940502,
        "Longitude(deg)": 45.554997621127015,
        "Mean Anomaly(deg)": -206.05017457251117,
        "RAAN(deg)": 344.9937751917874,
        "Satellite Name": "Constellation 1 1527",
        "Satellite Number": 1527,
        "Semi-Major Axis(m)": 7083131.272910544,
        "Time(s)": 110
    },
    {
        "Altitude(m)": 702886.688203615,
        "Argument of Periapsis(deg)": 0.006654228693240024,
        "Eccentricity": 0.0,
        "Inclination(deg)": 45.0,
        "Latitude(deg)": 18.092412257415845,
        "Longitude(deg)": 45.598318943953835,
        "Mean Anomaly(deg)": -205.98947343226118,
        "RAAN(deg)": 344.99371860262175,
        "Satellite Name": "Constellation 1 1527",
        "Satellite Number": 1527,
        "Semi-Major Axis(m)": 7083131.272910544,
        "Time(s)": 111
    },
    {
        "Altitude(m)": 702884.0935562362,
        "Argument of Periapsis(deg)": 0.006714176699485429,
        "Eccentricity": 0.0,
        "Inclination(deg)": 45.0,
        "Latitude(deg)": 18.051558426810743,
        "Longitude(deg)": 45.64161846852284,
        "Mean Anomaly(deg)": -205.92877229201133,
        "RAAN(deg)": 344.99366201345623,
        "Satellite Name": "Constellation 1 1527",
        "Satellite Number": 1527,
        "Semi-Major Axis(m)": 7083131.272910544,
        "Time(s)": 112
    },
    {
        "Altitude(m)": 702881.514272895,
        "Argument of Periapsis(deg)": 0.006774124705730835,
        "Eccentricity": 0.0,
        "Inclination(deg)": 45.0,
        "Latitude(deg)": 18.010692826910017,
        "Longitude(deg)": 45.68489608351092,
        "Mean Anomaly(deg)": -205.8680711517614,
        "RAAN(deg)": 344.99360542429065,
        "Satellite Name": "Constellation 1 1527",
        "Satellite Number": 1527,
        "Semi-Major Axis(m)": 7083131.272910544,
        "Time(s)": 113
    }
]